CCSDS_OMM_VERS = 2.0
CREATION_DATE  = 
ORIGINATOR     = 

OBJECT_NAME    = UNKNOWN
OBJECT_ID      = 
CENTER_NAME    = EARTH
REF_FRAME      = TEME
TIME_SYSTEM    = UTC
MEAN_ELEMENT_THEORY = SGP/SGP4

EPOCH          = 2025-12-06T05:41:13.629120
MEAN_MOTION    = 14.43095342
ECCENTRICITY   = .0012882
INCLINATION    = 98.1534
RA_OF_ASC_NODE = 334.9305
ARG_OF_PERICENTER = 173.5471
MEAN_ANOMALY   = 186.5889

EPHEMERIS_TYPE = 0
CLASSIFICATION_TYPE = U
NORAD_CAT_ID   = 89261
ELEMENT_SET_NO = 999
REV_AT_EPOCH   = 53287
BSTAR          = .55179E-3
MEAN_MOTION_DOT = .1812E-4
MEAN_MOTION_DDOT = 0

CCSDS_OMM_VERS = 2.0
CREATION_DATE  = 
ORIGINATOR     = 

OBJECT_NAME    = UNKNOWN
OBJECT_ID      = 
CENTER_NAME    = EARTH
REF_FRAME      = TEME
TIME_SYSTEM    = UTC
MEAN_ELEMENT_THEORY = SGP/SGP4

EPOCH          = 2025-12-04T15:36:18.226944
MEAN_MOTION    = 9.03063279
ECCENTRICITY   = .2844249
INCLINATION    = 84.3364
RA_OF_ASC_NODE = 106.1463
ARG_OF_PERICENTER = 356.2066
MEAN_ANOMALY   = 8.8658

EPHEMERIS_TYPE = 0
CLASSIFICATION_TYPE = U
NORAD_CAT_ID   = 89304
ELEMENT_SET_NO = 999
REV_AT_EPOCH   = 43767
BSTAR          = .33948E-1
MEAN_MOTION_DOT = .26411E-3
MEAN_MOTION_DDOT = 0

CCSDS_OMM_VERS = 2.0
CREATION_DATE  = 
ORIGINATOR     = 

OBJECT_NAME    = UNKNOWN
OBJECT_ID      = 
CENTER_NAME    = EARTH
REF_FRAME      = TEME
TIME_SYSTEM    = UTC
MEAN_ELEMENT_THEORY = SGP/SGP4

EPOCH          = 2025-12-07T12:18:46.417536
MEAN_MOTION    = 12.96241737
ECCENTRICITY   = .0028272
INCLINATION    = 90.2449
RA_OF_ASC_NODE = 7.2361
ARG_OF_PERICENTER = 279.5535
MEAN_ANOMALY   = 80.2390

EPHEMERIS_TYPE = 0
CLASSIFICATION_TYPE = U
NORAD_CAT_ID   = 89349
ELEMENT_SET_NO = 999
REV_AT_EPOCH   = 47807
BSTAR          = .14382E-2
MEAN_MOTION_DOT = .418E-5
MEAN_MOTION_DDOT = 0

CCSDS_OMM_VERS = 2.0
CREATION_DATE  = 
ORIGINATOR     = 

OBJECT_NAME    = UNKNOWN
OBJECT_ID      = 
CENTER_NAME    = EARTH
REF_FRAME      = TEME
TIME_SYSTEM    = UTC
MEAN_ELEMENT_THEORY = SGP/SGP4

EPOCH          = 2025-12-07T11:59:16.209024
MEAN_MOTION    = 13.62653514
ECCENTRICITY   = .0043131
INCLINATION    = 100.4798
RA_OF_ASC_NODE = 356.3776
ARG_OF_PERICENTER = 142.8540
MEAN_ANOMALY   = 217.5596

EPHEMERIS_TYPE = 0
CLASSIFICATION_TYPE = U
NORAD_CAT_ID   = 89379
ELEMENT_SET_NO = 999
REV_AT_EPOCH   = 58006
BSTAR          = .85442E-2
MEAN_MOTION_DOT = .6651E-4
MEAN_MOTION_DDOT = 0

CCSDS_OMM_VERS = 2.0
CREATION_DATE  = 
ORIGINATOR     = 

OBJECT_NAME    = UNKNOWN
OBJECT_ID      = 
CENTER_NAME    = EARTH
REF_FRAME      = TEME
TIME_SYSTEM    = UTC
MEAN_ELEMENT_THEORY = SGP/SGP4

EPOCH          = 2025-11-26T10:19:17.849280
MEAN_MOTION    = 12.01514817
ECCENTRICITY   = .0221848
INCLINATION    = 102.3682
RA_OF_ASC_NODE = 299.5856
ARG_OF_PERICENTER = 152.7477
MEAN_ANOMALY   = 0.1865

EPHEMERIS_TYPE = 0
CLASSIFICATION_TYPE = U
NORAD_CAT_ID   = 89395
ELEMENT_SET_NO = 999
REV_AT_EPOCH   = 52278
BSTAR          = .16005E-2
MEAN_MOTION_DOT = .1E-5
MEAN_MOTION_DDOT = 0

CCSDS_OMM_VERS = 2.0
CREATION_DATE  = 
ORIGINATOR     = 

OBJECT_NAME    = UNKNOWN
OBJECT_ID      = 
CENTER_NAME    = EARTH
REF_FRAME      = TEME
TIME_SYSTEM    = UTC
MEAN_ELEMENT_THEORY = SGP/SGP4

EPOCH          = 2025-12-06T07:32:07.733760
MEAN_MOTION    = 12.98747021
ECCENTRICITY   = .0028419
INCLINATION    = 90.2475
RA_OF_ASC_NODE = 5.6620
ARG_OF_PERICENTER = 232.6038
MEAN_ANOMALY   = 140.4118

EPHEMERIS_TYPE = 0
CLASSIFICATION_TYPE = U
NORAD_CAT_ID   = 89403
ELEMENT_SET_NO = 999
REV_AT_EPOCH   = 47699
BSTAR          = .3718E-2
MEAN_MOTION_DOT = .1108E-4
MEAN_MOTION_DDOT = 0

CCSDS_OMM_VERS = 2.0
CREATION_DATE  = 
ORIGINATOR     = 

OBJECT_NAME    = UNKNOWN
OBJECT_ID      = 
CENTER_NAME    = EARTH
REF_FRAME      = TEME
TIME_SYSTEM    = UTC
MEAN_ELEMENT_THEORY = SGP/SGP4

EPOCH          = 2025-12-06T18:22:30.017280
MEAN_MOTION    = 9.14100499
ECCENTRICITY   = .2858195
INCLINATION    = 84.0764
RA_OF_ASC_NODE = 156.4351
ARG_OF_PERICENTER = 34.6434
MEAN_ANOMALY   = 341.1145

EPHEMERIS_TYPE = 0
CLASSIFICATION_TYPE = U
NORAD_CAT_ID   = 89484
ELEMENT_SET_NO = 999
REV_AT_EPOCH   = 35489
BSTAR          = .36533E-1
MEAN_MOTION_DOT = .48329E-3
MEAN_MOTION_DDOT = 0

CCSDS_OMM_VERS = 2.0
CREATION_DATE  = 
ORIGINATOR     = 

OBJECT_NAME    = UNKNOWN
OBJECT_ID      = 
CENTER_NAME    = EARTH
REF_FRAME      = TEME
TIME_SYSTEM    = UTC
MEAN_ELEMENT_THEORY = SGP/SGP4

EPOCH          = 2025-11-30T15:25:56.459712
MEAN_MOTION    = 14.16161642
ECCENTRICITY   = .0081658
INCLINATION    = 99.0280
RA_OF_ASC_NODE = 43.3463
ARG_OF_PERICENTER = 75.3205
MEAN_ANOMALY   = 285.7002

EPHEMERIS_TYPE = 0
CLASSIFICATION_TYPE = U
NORAD_CAT_ID   = 89493
ELEMENT_SET_NO = 999
REV_AT_EPOCH   = 46223
BSTAR          = .13677E-2
MEAN_MOTION_DOT = .275E-4
MEAN_MOTION_DDOT = 0

CCSDS_OMM_VERS = 2.0
CREATION_DATE  = 
ORIGINATOR     = 

OBJECT_NAME    = UNKNOWN
OBJECT_ID      = 
CENTER_NAME    = EARTH
REF_FRAME      = TEME
TIME_SYSTEM    = UTC
MEAN_ELEMENT_THEORY = SGP/SGP4

EPOCH          = 2025-12-04T15:41:01.071168
MEAN_MOTION    = 14.16129144
ECCENTRICITY   = .008176
INCLINATION    = 99.0287
RA_OF_ASC_NODE = 47.2983
ARG_OF_PERICENTER = 63.9799
MEAN_ANOMALY   = 296.9765

EPHEMERIS_TYPE = 0
CLASSIFICATION_TYPE = U
NORAD_CAT_ID   = 89494
ELEMENT_SET_NO = 999
REV_AT_EPOCH   = 46265
BSTAR          = .27566E-2
MEAN_MOTION_DOT = .5588E-4
MEAN_MOTION_DDOT = 0

